{
  "type": "FeatureCollection",
  "features": [
    {
      "type": "Feature",
      "properties": {
        "norad_id": 64751,
        "name": "PROGRESS-MS 31",
        "group": "stations",
        "lat": -48.12307955589453,
        "lon": -32.79608218303298,
        "alt_km": 420.31060334716494,
        "timestamp": "2025-12-24T07:45:04.965472+00:00",
        "meta_object_name": "PROGRESS-MS 31",
        "meta_object_id": "2025-146A",
        "meta_epoch": "2025-12-23T18:17:18.636000",
        "meta_mean_motion": 15.49761422,
        "meta_eccentricity": 0.00031718,
        "meta_inclination": 51.6321,
        "meta_ra_of_asc_node": 87.8933,
        "meta_arg_of_pericenter": 292.1344,
        "meta_mean_anomaly": 67.9308,
        "meta_ephemeris_type": 0,
        "meta_classification_type": "U",
        "meta_norad_cat_id": 64751,
        "meta_element_set_no": 999,
        "meta_rev_at_epoch": 675,
        "meta_bstar": 0.00020966669,
        "meta_mean_motion_dot": 0.00011429,
        "meta_mean_motion_ddot": 0,
        "tle_line1": "1 64751U 25146A   25357.76202125  .00011429  00000+0  20967-3 0  9991",
        "tle_line2": "2 64751  51.6321  87.8933 0003171 292.1344  67.9308 15.49761422  6750"
      },
      "geometry": {
        "type": "Point",
        "coordinates": [
          -32.79608218303298,
          -48.12307955589453
        ]
      }
    },
    {
      "type": "Feature",
      "properties": {
        "norad_id": 64786,
        "name": "TIANZHOU-9",
        "group": "stations",
        "lat": 41.382874884187856,
        "lon": 40.234934553906044,
        "alt_km": 377.79050887646827,
        "timestamp": "2025-12-24T07:45:04.965482+00:00",
        "meta_object_name": "TIANZHOU-9",
        "meta_object_id": "2025-149A",
        "meta_epoch": "2025-12-23T22:08:03.098976",
        "meta_mean_motion": 15.5961343,
        "meta_eccentricity": 0.00080636,
        "meta_inclination": 41.4684,
        "meta_ra_of_asc_node": 308.7959,
        "meta_arg_of_pericenter": 129.7983,
        "meta_mean_anomaly": 230.3567,
        "meta_ephemeris_type": 0,
        "meta_classification_type": "U",
        "meta_norad_cat_id": 64786,
        "meta_element_set_no": 999,
        "meta_rev_at_epoch": 25530,
        "meta_bstar": 0.00017429265,
        "meta_mean_motion_dot": 0.0001399,
        "meta_mean_motion_ddot": 0,
        "tle_line1": "1 64786U 25149A   25357.92225809  .00013990  00000+0  17429-3 0  9998",
        "tle_line2": "2 64786  41.4684 308.7959 0008063 129.7983 230.3567 15.59613430255305"
      },
      "geometry": {
        "type": "Point",
        "coordinates": [
          40.234934553906044,
          41.382874884187856
        ]
      }
    },
    {
      "type": "Feature",
      "properties": {
        "norad_id": 65077,
        "name": "CREW DRAGON 11",
        "group": "stations",
        "lat": -48.123080029429495,
        "lon": -32.796080385524206,
        "alt_km": 420.3106033290878,
        "timestamp": "2025-12-24T07:45:04.965492+00:00",
        "meta_object_name": "CREW DRAGON 11",
        "meta_object_id": "2025-166A",
        "meta_epoch": "2025-12-23T18:17:18.636000",
        "meta_mean_motion": 15.49761422,
        "meta_eccentricity": 0.00031718,
        "meta_inclination": 51.6321,
        "meta_ra_of_asc_node": 87.8933,
        "meta_arg_of_pericenter": 292.1344,
        "meta_mean_anomaly": 67.9308,
        "meta_ephemeris_type": 0,
        "meta_classification_type": "U",
        "meta_norad_cat_id": 65077,
        "meta_element_set_no": 999,
        "meta_rev_at_epoch": 214,
        "meta_bstar": 0.00020966669,
        "meta_mean_motion_dot": 0.00011429,
        "meta_mean_motion_ddot": 0,
        "tle_line1": "1 65077U 25166A   25357.76202125  .00011429  00000+0  20967-3 0  9995",
        "tle_line2": "2 65077  51.6321  87.8933 0003171 292.1344  67.9308 15.49761422  2141"
      },
      "geometry": {
        "type": "Point",
        "coordinates": [
          -32.796080385524206,
          -48.123080029429495
        ]
      }
    },
    {
      "type": "Feature",
      "properties": {
        "norad_id": 65304,
        "name": "DRAGON CRS-33",
        "group": "stations",
        "lat": -48.1230803372277,
        "lon": -32.796079217141596,
        "alt_km": 420.31060331733806,
        "timestamp": "2025-12-24T07:45:04.965505+00:00",
        "meta_object_name": "DRAGON CRS-33",
        "meta_object_id": "2025-186A",
        "meta_epoch": "2025-12-23T18:17:18.636000",
        "meta_mean_motion": 15.49761422,
        "meta_eccentricity": 0.00031718,
        "meta_inclination": 51.6321,
        "meta_ra_of_asc_node": 87.8933,
        "meta_arg_of_pericenter": 292.1344,
        "meta_mean_anomaly": 67.9308,
        "meta_ephemeris_type": 0,
        "meta_classification_type": "U",
        "meta_norad_cat_id": 65304,
        "meta_element_set_no": 999,
        "meta_rev_at_epoch": 11,
        "meta_bstar": 0.00020966669,
        "meta_mean_motion_dot": 0.00011429,
        "meta_mean_motion_ddot": 0,
        "tle_line1": "1 65304U 25186A   25357.76202125  .00011429  00000+0  20967-3 0  9990",
        "tle_line2": "2 65304  51.6321  87.8933 0003171 292.1344  67.9308 15.49761422   119"
      },
      "geometry": {
        "type": "Point",
        "coordinates": [
          -32.796079217141596,
          -48.1230803372277
        ]
      }
    },
    {
      "type": "Feature",
      "properties": {
        "norad_id": 65586,
        "name": "PROGRESS-MS 32",
        "group": "stations",
        "lat": -48.12308059767185,
        "lon": -32.79607822851199,
        "alt_km": 420.31060330739365,
        "timestamp": "2025-12-24T07:45:04.965516+00:00",
        "meta_object_name": "PROGRESS-MS 32",
        "meta_object_id": "2025-204A",
        "meta_epoch": "2025-12-23T18:17:18.636000",
        "meta_mean_motion": 15.49761422,
        "meta_eccentricity": 0.00031718,
        "meta_inclination": 51.6321,
        "meta_ra_of_asc_node": 87.8933,
        "meta_arg_of_pericenter": 292.1344,
        "meta_mean_anomaly": 67.9308,
        "meta_ephemeris_type": 0,
        "meta_classification_type": "U",
        "meta_norad_cat_id": 65586,
        "meta_element_set_no": 999,
        "meta_rev_at_epoch": 27,
        "meta_bstar": 0.00020966669,
        "meta_mean_motion_dot": 0.00011429,
        "meta_mean_motion_ddot": 0,
        "tle_line1": "1 65586U 25204A   25357.76202125  .00011429  00000+0  20967-3 0  9993",
        "tle_line2": "2 65586  51.6321  87.8933 0003171 292.1344  67.9308 15.49761422   278"
      },
      "geometry": {
        "type": "Point",
        "coordinates": [
          -32.79607822851199,
          -48.12308059767185
        ]
      }
    },
    {
      "type": "Feature",
      "properties": {
        "norad_id": 65616,
        "name": "CYGNUS NG-23",
        "group": "stations",
        "lat": -48.12308081076263,
        "lon": -32.79607741963279,
        "alt_km": 420.3106032992591,
        "timestamp": "2025-12-24T07:45:04.965525+00:00",
        "meta_object_name": "CYGNUS NG-23",
        "meta_object_id": "2025-208A",
        "meta_epoch": "2025-12-23T18:17:18.636000",
        "meta_mean_motion": 15.49761422,
        "meta_eccentricity": 0.00031718,
        "meta_inclination": 51.6321,
        "meta_ra_of_asc_node": 87.8933,
        "meta_arg_of_pericenter": 292.1344,
        "meta_mean_anomaly": 67.9308,
        "meta_ephemeris_type": 0,
        "meta_classification_type": "U",
        "meta_norad_cat_id": 65616,
        "meta_element_set_no": 999,
        "meta_rev_at_epoch": 22,
        "meta_bstar": 0.00020966669,
        "meta_mean_motion_dot": 0.00011429,
        "meta_mean_motion_ddot": 0,
        "tle_line1": "1 65616U 25208A   25357.76202125  .00011429  00000+0  20967-3 0  9991",
        "tle_line2": "2 65616  51.6321  87.8933 0003171 292.1344  67.9308 15.49761422   227"
      },
      "geometry": {
        "type": "Point",
        "coordinates": [
          -32.79607741963279,
          -48.12308081076263
        ]
      }
    },
    {
      "type": "Feature",
      "properties": {
        "norad_id": 65729,
        "name": "DRAGONFLY",
        "group": "stations",
        "lat": 14.937833774755754,
        "lon": -115.92850865137602,
        "alt_km": 346.0653714970458,
        "timestamp": "2025-12-24T07:45:04.965536+00:00",
        "meta_object_name": "DRAGONFLY",
        "meta_object_id": "1998-067XH",
        "meta_epoch": "2025-12-23T20:25:05.088576",
        "meta_mean_motion": 15.75691261,
        "meta_eccentricity": 0.0007924,
        "meta_inclination": 51.6249,
        "meta_ra_of_asc_node": 78.7101,
        "meta_arg_of_pericenter": 343.6586,
        "meta_mean_anomaly": 16.4157,
        "meta_ephemeris_type": 0,
        "meta_classification_type": "U",
        "meta_norad_cat_id": 65729,
        "meta_element_set_no": 999,
        "meta_rev_at_epoch": 1491,
        "meta_bstar": 0.0011533636,
        "meta_mean_motion_dot": 0.00184258,
        "meta_mean_motion_ddot": 0,
        "tle_line1": "1 65729U 98067XH  25357.85075334  .00184258  00000+0  11534-2 0  9999",
        "tle_line2": "2 65729  51.6249  78.7101 0007924 343.6586  16.4157 15.75691261 14911"
      },
      "geometry": {
        "type": "Point",
        "coordinates": [
          -115.92850865137602,
          14.937833774755754
        ]
      }
    }
  ]
}